{
  "type": "FeatureCollection",
  "features": [
    {
      "type": "Feature",
      "properties": {
        "norad_id": 33412,
        "name": "COSMO-SKYMED 3",
        "group": "resource",
        "lat": -46.19441335131566,
        "lon": -145.49099607618476,
        "alt_km": 568.6787155635393,
        "timestamp": "2025-12-21T16:47:54.385468+00:00",
        "meta_object_name": "COSMO-SKYMED 3",
        "meta_object_id": "2008-054A",
        "meta_epoch": "2025-12-21T13:48:57.602880",
        "meta_mean_motion": 15.05425262,
        "meta_eccentricity": 0.0017052,
        "meta_inclination": 97.8462,
        "meta_ra_of_asc_node": 206.1165,
        "meta_arg_of_pericenter": 142.6954,
        "meta_mean_anomaly": 217.546,
        "meta_ephemeris_type": 0,
        "meta_classification_type": "U",
        "meta_norad_cat_id": 33412,
        "meta_element_set_no": 999,
        "meta_rev_at_epoch": 93020,
        "meta_bstar": 5.6652e-05,
        "meta_mean_motion_dot": 7.5e-06,
        "meta_mean_motion_ddot": 0,
        "tle_line1": "1 33412U 08054A   25355.57566670  .00000750  00000+0  56652-4 0  9991",
        "tle_line2": "2 33412  97.8462 206.1165 0017052 142.6954 217.5460 15.05425262930209"
      },
      "geometry": {
        "type": "Point",
        "coordinates": [
          -145.49099607618476,
          -46.19441335131566
        ]
      }
    },
    {
      "type": "Feature",
      "properties": {
        "norad_id": 33446,
        "name": "YAOGAN-4",
        "group": "resource",
        "lat": -74.50914782558097,
        "lon": -44.138849611384906,
        "alt_km": 619.0679333247808,
        "timestamp": "2025-12-21T16:47:54.385479+00:00",
        "meta_object_name": "YAOGAN-4",
        "meta_object_id": "2008-061A",
        "meta_epoch": "2025-12-21T09:02:40.964064",
        "meta_mean_motion": 14.8270568,
        "meta_eccentricity": 0.0013066,
        "meta_inclination": 97.9195,
        "meta_ra_of_asc_node": 285.3917,
        "meta_arg_of_pericenter": 292.927,
        "meta_mean_anomaly": 67.0564,
        "meta_ephemeris_type": 0,
        "meta_classification_type": "U",
        "meta_norad_cat_id": 33446,
        "meta_element_set_no": 999,
        "meta_rev_at_epoch": 91931,
        "meta_bstar": 0.00013803,
        "meta_mean_motion_dot": 1.061e-05,
        "meta_mean_motion_ddot": 0,
        "tle_line1": "1 33446U 08061A   25355.37686301  .00001061  00000+0  13803-3 0  9994",
        "tle_line2": "2 33446  97.9195 285.3917 0013066 292.9270  67.0564 14.82705680919316"
      },
      "geometry": {
        "type": "Point",
        "coordinates": [
          -44.138849611384906,
          -74.50914782558097
        ]
      }
    },
    {
      "type": "Feature",
      "properties": {
        "norad_id": 33492,
        "name": "GOSAT (IBUKI)",
        "group": "resource",
        "lat": -27.27984408266414,
        "lon": -80.02104478347458,
        "alt_km": 674.8990403558219,
        "timestamp": "2025-12-21T16:47:54.385490+00:00",
        "meta_object_name": "GOSAT (IBUKI)",
        "meta_object_id": "2009-002A",
        "meta_epoch": "2025-12-21T10:56:49.039296",
        "meta_mean_motion": 14.67540935,
        "meta_eccentricity": 9.93e-05,
        "meta_inclination": 98.0772,
        "meta_ra_of_asc_node": 103.9383,
        "meta_arg_of_pericenter": 101.8654,
        "meta_mean_anomaly": 258.2662,
        "meta_ephemeris_type": 0,
        "meta_classification_type": "U",
        "meta_norad_cat_id": 33492,
        "meta_element_set_no": 999,
        "meta_rev_at_epoch": 90539,
        "meta_bstar": 0.00012513,
        "meta_mean_motion_dot": 6.62e-06,
        "meta_mean_motion_ddot": 0,
        "tle_line1": "1 33492U 09002A   25355.45612314  .00000662  00000+0  12513-3 0  9996",
        "tle_line2": "2 33492  98.0772 103.9383 0000993 101.8654 258.2662 14.67540935905390"
      },
      "geometry": {
        "type": "Point",
        "coordinates": [
          -80.02104478347458,
          -27.27984408266414
        ]
      }
    },
    {
      "type": "Feature",
      "properties": {
        "norad_id": 35681,
        "name": "DEIMOS-1",
        "group": "resource",
        "lat": 15.826606717115542,
        "lon": -21.912004598540527,
        "alt_km": 646.2881686286673,
        "timestamp": "2025-12-21T16:47:54.385501+00:00",
        "meta_object_name": "DEIMOS-1",
        "meta_object_id": "2009-041A",
        "meta_epoch": "2025-12-21T12:48:05.851584",
        "meta_mean_motion": 14.74963577,
        "meta_eccentricity": 0.0002576,
        "meta_inclination": 97.7145,
        "meta_ra_of_asc_node": 155.7271,
        "meta_arg_of_pericenter": 65.7085,
        "meta_mean_anomaly": 294.4393,
        "meta_ephemeris_type": 0,
        "meta_classification_type": "U",
        "meta_norad_cat_id": 35681,
        "meta_element_set_no": 999,
        "meta_rev_at_epoch": 88069,
        "meta_bstar": 3.6668e-05,
        "meta_mean_motion_dot": 1.99e-06,
        "meta_mean_motion_ddot": 0,
        "tle_line1": "1 35681U 09041A   25355.53340106  .00000199  00000+0  36668-4 0  9990",
        "tle_line2": "2 35681  97.7145 155.7271 0002576  65.7085 294.4393 14.74963577880695"
      },
      "geometry": {
        "type": "Point",
        "coordinates": [
          -21.912004598540527,
          15.826606717115542
        ]
      }
    },
    {
      "type": "Feature",
      "properties": {
        "norad_id": 35682,
        "name": "DUBAISAT-1",
        "group": "resource",
        "lat": 81.75132933200388,
        "lon": 50.86831015809458,
        "alt_km": 645.1634452676635,
        "timestamp": "2025-12-21T16:47:54.385512+00:00",
        "meta_object_name": "DUBAISAT-1",
        "meta_object_id": "2009-041B",
        "meta_epoch": "2025-12-21T06:37:47.237088",
        "meta_mean_motion": 14.74625795,
        "meta_eccentricity": 0.0009241,
        "meta_inclination": 97.9798,
        "meta_ra_of_asc_node": 125.8306,
        "meta_arg_of_pericenter": 283.8068,
        "meta_mean_anomaly": 76.2112,
        "meta_ephemeris_type": 0,
        "meta_classification_type": "U",
        "meta_norad_cat_id": 35682,
        "meta_element_set_no": 999,
        "meta_rev_at_epoch": 87887,
        "meta_bstar": 0.0001605,
        "meta_mean_motion_dot": 1.02e-05,
        "meta_mean_motion_ddot": 0,
        "tle_line1": "1 35682U 09041B   25355.27624117  .00001020  00000+0  16050-3 0  9995",
        "tle_line2": "2 35682  97.9798 125.8306 0009241 283.8068  76.2112 14.74625795878878"
      },
      "geometry": {
        "type": "Point",
        "coordinates": [
          50.86831015809458,
          81.75132933200388
        ]
      }
    },
    {
      "type": "Feature",
      "properties": {
        "norad_id": 35931,
        "name": "OCEANSAT-2",
        "group": "resource",
        "lat": 9.630638897336718,
        "lon": -6.014400539358187,
        "alt_km": 885.2739109837557,
        "timestamp": "2025-12-21T16:47:54.385523+00:00",
        "meta_object_name": "OCEANSAT-2",
        "meta_object_id": "2009-051A",
        "meta_epoch": "2025-12-21T13:19:14.905632",
        "meta_mean_motion": 13.99622994,
        "meta_eccentricity": 0.0015991,
        "meta_inclination": 98.2217,
        "meta_ra_of_asc_node": 355.2612,
        "meta_arg_of_pericenter": 21.9419,
        "meta_mean_anomaly": 338.2429,
        "meta_ephemeris_type": 0,
        "meta_classification_type": "U",
        "meta_norad_cat_id": 35931,
        "meta_element_set_no": 999,
        "meta_rev_at_epoch": 85448,
        "meta_bstar": -4.8974e-05,
        "meta_mean_motion_dot": -1.09e-06,
        "meta_mean_motion_ddot": 0,
        "tle_line1": "1 35931U 09051A   25355.55503363 -.00000109  00000+0 -48974-4 0  9993",
        "tle_line2": "2 35931  98.2217 355.2612 0015991  21.9419 338.2429 13.99622994854481"
      },
      "geometry": {
        "type": "Point",
        "coordinates": [
          -6.014400539358187,
          9.630638897336718
        ]
      }
    },
    {
      "type": "Feature",
      "properties": {
        "norad_id": 35946,
        "name": "WORLDVIEW-2 (WV-2)",
        "group": "resource",
        "lat": -77.87939562989986,
        "lon": 110.64970888007126,
        "alt_km": 775.5723555838376,
        "timestamp": "2025-12-21T16:47:54.385534+00:00",
        "meta_object_name": "WORLDVIEW-2 (WV-2)",
        "meta_object_id": "2009-055A",
        "meta_epoch": "2025-12-21T12:09:55.283040",
        "meta_mean_motion": 14.37727569,
        "meta_eccentricity": 0.0004877,
        "meta_inclination": 98.4778,
        "meta_ra_of_asc_node": 66.4711,
        "meta_arg_of_pericenter": 49.1744,
        "meta_mean_anomaly": 310.9865,
        "meta_ephemeris_type": 0,
        "meta_classification_type": "U",
        "meta_norad_cat_id": 35946,
        "meta_element_set_no": 999,
        "meta_rev_at_epoch": 85011,
        "meta_bstar": 5.8671e-05,
        "meta_mean_motion_dot": 1.33e-06,
        "meta_mean_motion_ddot": 0,
        "tle_line1": "1 35946U 09055A   25355.50688985  .00000133  00000+0  58671-4 0  9992",
        "tle_line2": "2 35946  98.4778  66.4711 0004877  49.1744 310.9865 14.37727569850110"
      },
      "geometry": {
        "type": "Point",
        "coordinates": [
          110.64970888007126,
          -77.87939562989986
        ]
      }
    }
  ]
}